*******************************************************************************
Ephemeris / WWW_USER Mon Mar 26 20:18:32 2018 Pasadena, USA      / Horizons    
*******************************************************************************
Target body name: Callisto (504)                  {source: jup310}
Center body name: Jupiter Barycenter (5)          {source: DE431mx}
Center-site name: BODY CENTER
*******************************************************************************
Start time      : A.D. 2000-Jan-01 00:00:00.0000 TDB
Stop  time      : A.D. 2005-Jan-01 00:00:00.0000 TDB
Step-size       : 7200 minutes
*******************************************************************************
Center geodetic : 0.00000000,0.00000000,0.0000000 {E-lon(deg),Lat(deg),Alt(km)}
Center cylindric: 0.00000000,0.00000000,0.0000000 {E-lon(deg),Dxy(km),Dz(km)}
Center radii    : (undefined)                                                  
Output units    : AU-D                                                         
Output type     : GEOMETRIC cartesian states
Output format   : 2 (position and velocity)
Reference frame : ICRF/J2000.0                                                 
Coordinate systm: Ecliptic and Mean Equinox of Reference Epoch                 
*******************************************************************************
JDTDB
   X     Y     Z
   VX    VY    VZ
*******************************************************************************
$$SOE
2452174.500000000 = A.D. 2001-Sep-22 00:00:00.0000 TDB 
   1.158057040704773E-02 -4.694360166917636E-03  2.475370601700431E-06
   1.782647584378645E-03  4.422787323213179E-03  1.676596425461379E-04
2452179.500000000 = A.D. 2001-Sep-27 00:00:00.0000 TDB 
   6.885079126216606E-04  1.256331805328119E-02  4.176546730753309E-04
  -4.726712193196669E-03  2.950880370824251E-04 -5.370922832886486E-05
2452184.500000000 = A.D. 2001-Oct-02 00:00:00.0000 TDB 
  -1.231444016616460E-02 -2.973163948125185E-03 -2.615928222014887E-04
   1.117924154538006E-03 -4.568804861663982E-03 -1.335622558063067E-04
2452189.500000000 = A.D. 2001-Oct-07 00:00:00.0000 TDB 
   6.467456185234672E-03 -1.072749990064876E-02 -2.621228090627597E-04
   4.061429953348648E-03  2.476876610112772E-03  1.349274755281071E-04
2452194.500000000 = A.D. 2001-Oct-12 00:00:00.0000 TDB 
   8.007141112507419E-03  9.632157430913151E-03  4.203983258525805E-04
  -3.641223779440855E-03  3.061653147174648E-03  5.075886217138333E-05
2452199.500000000 = A.D. 2001-Oct-17 00:00:00.0000 TDB 
  -1.172334643606647E-02  4.812425655023678E-03 -6.054782774469269E-07
  -1.794831418967900E-03 -4.345973063470636E-03 -1.653342097534309E-04
2452204.500000000 = A.D. 2001-Oct-22 00:00:00.0000 TDB 
  -1.213426934022359E-03 -1.251824036878767E-02 -4.232260036917396E-04
   4.718894784606449E-03 -4.238135827886583E-04  4.944213703289728E-05
2452209.500000000 = A.D. 2001-Oct-27 00:00:00.0000 TDB 
   1.215428457045530E-02  2.897349220706644E-03  2.570411134553497E-04
  -1.097421210410981E-03  4.640875905890423E-03  1.361751202748669E-04
2452214.500000000 = A.D. 2001-Nov-01 00:00:00.0000 TDB 
  -6.639597965771220E-03  1.075320426352967E-02  2.606235939614299E-04
  -4.028080427402331E-03 -2.450966125349414E-03 -1.336574354540130E-04
2452219.500000000 = A.D. 2001-Nov-06 00:00:00.0000 TDB 
  -8.425347583529147E-03 -9.410542029673790E-03 -4.188378221711688E-04
   3.534902507731783E-03 -3.124185836869583E-03 -5.420059840411488E-05
2452224.500000000 = A.D. 2001-Nov-11 00:00:00.0000 TDB 
   1.145716138101302E-02 -4.989576369198251E-03 -8.668849132590729E-06
   1.894538518095012E-03  4.375767832954751E-03  1.676483761029308E-04
2452229.500000000 = A.D. 2001-Nov-16 00:00:00.0000 TDB 
   1.005301556588724E-03  1.253948546637802E-02  4.211374383653641E-04
  -4.718664529532031E-03  4.143356816447647E-04 -4.976808963828170E-05
2452234.500000000 = A.D. 2001-Nov-21 00:00:00.0000 TDB 
  -1.238557486922802E-02 -2.665924777078384E-03 -2.526711448624114E-04
   1.002890770487914E-03 -4.595058267796531E-03 -1.359495360258192E-04
2452239.500000000 = A.D. 2001-Nov-26 00:00:00.0000 TDB 
   6.192882477234318E-03 -1.089019773297774E-02 -2.710415599906354E-04
   4.122422236704879E-03  2.372761743502439E-03  1.323975445626851E-04
2452244.500000000 = A.D. 2001-Dec-01 00:00:00.0000 TDB 
   8.248738613027757E-03  9.423691860246292E-03  4.169368799604403E-04
  -3.562973546296273E-03  3.153384739544754E-03  5.476019406807832E-05
2452249.500000000 = A.D. 2001-Dec-06 00:00:00.0000 TDB 
  -1.159935770977765E-02  5.102225014308763E-03  1.038078702510659E-05
  -1.903392279594098E-03 -4.299839997379030E-03 -1.653082586559378E-04
2452254.500000000 = A.D. 2001-Dec-11 00:00:00.0000 TDB 
  -1.529541823387127E-03 -1.248590130511996E-02 -4.264339721305878E-04
   4.705808123349401E-03 -5.426589264636618E-04  4.544251604548108E-05
2452259.500000000 = A.D. 2001-Dec-16 00:00:00.0000 TDB 
   1.222389409450904E-02  2.585136205603556E-03  2.479278749526962E-04
  -9.790619486288253E-04  4.667510376164046E-03  1.386229313196913E-04
2452264.500000000 = A.D. 2001-Dec-21 00:00:00.0000 TDB 
  -6.367431883051464E-03  1.091409581227805E-02  2.694606897551857E-04
  -4.089114108582820E-03 -2.349352216106575E-03 -1.312071856483834E-04
2452269.500000000 = A.D. 2001-Dec-26 00:00:00.0000 TDB 
  -8.659807889519483E-03 -9.198159858184956E-03 -4.151551267984086E-04
   3.454700515742028E-03 -3.211461180285643E-03 -5.808851290875927E-05
2452274.500000000 = A.D. 2001-Dec-31 00:00:00.0000 TDB 
   1.132628315287084E-02 -5.281523704730720E-03 -1.983143702093427E-05
   2.005173060930846E-03  4.325915881457061E-03  1.675308924489003E-04
2452279.500000000 = A.D. 2002-Jan-05 00:00:00.0000 TDB 
   1.321390746485529E-03  1.250766609047075E-02  4.243654883400221E-04
  -4.707599137526617E-03  5.333836436536448E-04 -4.578508760865249E-05
2452284.500000000 = A.D. 2002-Jan-10 00:00:00.0000 TDB 
  -1.244898520472716E-02 -2.357051051358998E-03 -2.435763708730259E-04
   8.872585978196855E-04 -4.618426667177359E-03 -1.382582980827862E-04
2452289.500000000 = A.D. 2002-Jan-15 00:00:00.0000 TDB 
   5.914291538726608E-03 -1.104587531684848E-02 -2.798090978715703E-04
   4.180712383696723E-03  2.267162930206853E-03  1.297794257862139E-04
2452294.500000000 = A.D. 2002-Jan-20 00:00:00.0000 TDB 
   8.484975520423719E-03  9.209149703377145E-03  4.132038095036742E-04
  -3.482397882219406E-03  3.243114658575866E-03  5.873702789384177E-05
2452299.500000000 = A.D. 2002-Jan-25 00:00:00.0000 TDB 
  -1.146814965632692E-02  5.388804731767979E-03  2.138391829501185E-05
  -2.010766561545772E-03 -4.251022723638031E-03 -1.651809596288006E-04
2452304.500000000 = A.D. 2002-Jan-30 00:00:00.0000 TDB 
  -1.844661876392287E-03 -1.244561635788218E-02 -4.293817660678126E-04
   4.689725382110133E-03 -6.610818919387940E-04  4.140821212521057E-05
2452309.500000000 = A.D. 2002-Feb-04 00:00:00.0000 TDB 
   1.228551546383987E-02  2.271270884243474E-03  2.386364223907585E-04
  -8.600667471560146E-04  4.691112570388478E-03  1.409873696150167E-04
2452314.500000000 = A.D. 2002-Feb-09 00:00:00.0000 TDB 
  -6.091328854145238E-03  1.106808889075910E-02  2.781483833931570E-04
  -4.147580016882040E-03 -2.246243320267760E-03 -1.286696736620099E-04
2452319.500000000 = A.D. 2002-Feb-14 00:00:00.0000 TDB 
  -8.888782415447572E-03 -8.980036647874156E-03 -4.112071535266266E-04
   3.372388694991917E-03 -3.296660956373407E-03 -6.194622618589719E-05
2452324.500000000 = A.D. 2002-Feb-19 00:00:00.0000 TDB 
   1.118803117826186E-02 -5.570003462664277E-03 -3.100450980426168E-05
   2.114477469265804E-03  4.273265230963474E-03  1.673055435440345E-04
2452329.500000000 = A.D. 2002-Feb-24 00:00:00.0000 TDB 
   1.636561828682643E-03  1.246787788936224E-02  4.273319740981296E-04
  -4.693530289670476E-03  6.521426788708687E-04 -4.176285035821804E-05
2452334.500000000 = A.D. 2002-Mar-01 00:00:00.0000 TDB 
  -1.250463173246896E-02 -2.046751495352995E-03 -2.343122178874608E-04
   7.711087928227775E-04 -4.638905420621148E-03 -1.404858213844046E-04
2452339.500000000 = A.D. 2002-Mar-06 00:00:00.0000 TDB 
   5.631871699079040E-03 -1.119443330660712E-02 -2.884165619269456E-04
   4.236275616636947E-03  2.160149150574485E-03  1.270737038049749E-04
2452344.500000000 = A.D. 2002-Mar-11 00:00:00.0000 TDB 
   8.715701834973583E-03  8.988663981051793E-03  4.091970776060087E-04
  -3.399544192344770E-03  3.330796550568518E-03  6.268653398552113E-05
2452349.500000000 = A.D. 2002-Mar-16 00:00:00.0000 TDB 
  -1.132980381254502E-02  5.671992139401092E-03  3.239668611739569E-05
  -2.116905406978482E-03 -4.199545324155256E-03 -1.649507241484296E-04
2452354.500000000 = A.D. 2002-Mar-21 00:00:00.0000 TDB 
  -2.158596391654991E-03 -1.239741864336767E-02 -4.320632754346464E-04
   4.670656665205224E-03 -7.790207640392743E-04  3.734108033670649E-05
2452359.500000000 = A.D. 2002-Mar-26 00:00:00.0000 TDB 
   1.233911411829386E-02  1.955937198220834E-03  2.291700934115250E-04
  -7.404993788255824E-04  4.711666101859128E-03  1.432654480607689E-04
2452364.500000000 = A.D. 2002-Mar-31 00:00:00.0000 TDB 
  -5.811453449010321E-03  1.121508587963740E-02  2.866779729180248E-04
  -4.203452372956579E-03 -2.141695218303138E-03 -1.260451138169745E-04
2452369.500000000 = A.D. 2002-Apr-05 00:00:00.0000 TDB 
  -9.112131193487732E-03 -8.756317572488232E-03 -4.069926560223806E-04
   3.287999166587920E-03 -3.379743286612585E-03 -6.577113700392625E-05
2452374.500000000 = A.D. 2002-Apr-10 00:00:00.0000 TDB 
   1.104250441598930E-02 -5.854830729455434E-03 -4.217977892748346E-05
   2.222369697333713E-03  4.217841118779190E-03  1.669703246668958E-04
2452379.500000000 = A.D. 2002-Apr-15 00:00:00.0000 TDB 
   1.950608689655656E-03  1.242014568896318E-02  4.300303188218386E-04
  -4.676460773358835E-03  7.705297910705023E-04 -3.770392844150459E-05
